1 22824U 93061B   08145.87145028 -.00000051  00000-0 -37030-5 0  9996
2 22824 098.4242 101.0966 0006711 011.3942 348.7387 14.27279855763799
1 22824U 93061B   08145.94155376 -.00000037 +00000-0 +21675-5 0  9992
2 22824 098.4242 101.1641 0006701 011.1648 348.9688 14.27279930763802
1 22824U 93061B   08146.92300084 +.00000024 +00000-0 +26997-4 0  9995
2 22824 098.4242 102.1103 0006631 008.4762 351.6545 14.27280233763940
1 22824U 93061B   08147.20341405  .00000048  00000-0  36970-4 0  9997
2 22824 098.4243 102.3805 0006641 007.8515 352.2774 14.27280385763985
1 22824U 93061B   08147.97455162 -.00000058 +00000-0 -64351-5 0  9995
2 22824 098.4243 103.1239 0006662 005.6602 354.4651 14.27279915764099
1 22824U 93061B   08148.53537892 -.00000135  00000-0 -37960-4 0  9990
2 22824 098.4244 103.6644 0006592 004.4320 355.6917 14.27279575764170
1 22824U 93061B   08148.95599926 -.00000087 +00000-0 -18326-4 0  9993
2 22824 098.4243 104.0698 0006585 003.0993 357.0235 14.27279719764232
1 22824U 93061B   08149.86734365 -.00000150  00000-0 -44122-4 0  9996
2 22824 098.4243 104.9477 0006535 000.2914 359.8272 14.27279273764363
1 22824U 93061B   08150.91889372 +.00000037 +00000-0 +32138-4 0  9999
2 22824 098.4239 105.9622 0006431 357.0668 003.0490 14.27280265764515
1 22824U 93061B   08151.19930666  .00000145  00000-0  76435-4 0  9991
2 22824 098.4239 106.2327 0006401 356.3866 003.7281 14.27280919764555
1 22824U 93061B   08151.97044355 +.00000088 +00000-0 +53311-4 0  9992
2 22824 098.4238 106.9750 0006348 354.4600 005.6510 14.27280839764665
1 22824U 93061B   08152.53127116 -.00000088  00000-0 -18753-4 0  9995
2 22824 098.4240 107.5154 0006310 353.0007 007.1085 14.27280094764744
1 22824U 93061B   08152.95189111 -.00000036 +00000-0 +24837-5 0  9997
2 22824 098.4237 107.9217 0006306 351.7680 008.3391 14.27280213764804
1 22824U 93061B   08153.58282248 -.00000191  00000-0 -61053-4 0  9995
2 22824 098.4237 108.5294 0006348 349.7487 010.3560 14.27279330764892
1 22824U 93061B   08153.93333910 -.00000077 +00000-0 -14171-4 0  9999
2 22824 098.4236 108.8674 0006355 348.5087 011.5958 14.27279866764941
1 22824U 93061B   08154.91478571 -.00000030 +00000-0 +47795-5 0  9998
2 22824 098.4237 109.8140 0006236 345.3955 014.7051 14.27280131765080
1 22824U 93061B   08154.91478589 -.00000073  00000-0 -12822-4 0  9997
2 22824 098.4237 109.8139 0006239 345.5335 014.5668 14.27279904765083
1 22824U 93061B   08155.96633607 +.00000026 +00000-0 +27727-4 0  9993
2 22824 098.4243 110.8280 0006232 343.0919 017.0051 14.27280653765237
1 22824U 93061B   08156.17664605  .00000027  00000-0  28023-4 0  9990
2 22824 098.4249 111.0314 0006147 342.6108 017.4861 14.27280667765265
1 22824U 93061B   08156.94778376 -.00000114 +00000-0 -29294-4 0  9996
2 22824 098.4248 111.7741 0006096 340.3156 019.7787 14.27279972765377
1 22824U 93061B   08157.22819760 -.00000118  00000-0 -31184-4 0  9996
2 22824 098.4249 112.0445 0006110 339.9271 020.1670 14.27279880765412
1 22824U 93061B   08157.92923204 -.00000149 +00000-0 -43783-4 0  9994
2 22824 098.4247 112.7197 0006182 337.4195 022.6720 14.27279519765511
1 22824U 93061B   08158.56016254 -.00000126  00000-0 -34441-4 0  9999
2 22824 098.4250 113.3280 0006173 335.9077 024.1814 14.27279508765606
1 22824U 93061B   08158.98078221 +.00000015 +00000-0 +23356-4 0  9995
2 22824 098.4249 113.7336 0006199 334.1893 025.8980 14.27280122765667
1 22824U 93061B   08159.89212582  .00000195  00000-0  96788-4 0  9994
2 22824 098.4247 114.6130 0006092 331.1993 028.8850 14.27281021765799
1 22824U 93061B   08159.96222925 +.00000202 +00000-0 +99928-4 0  9992
2 22824 098.4246 114.6807 0006075 330.8329 029.2521 14.27281100765809
1 22824U 93061B   08160.94367693 +.00000039 +00000-0 +33005-4 0  9996
2 22824 098.4248 115.6263 0005987 327.5214 032.5604 14.27280503765945
1 22824U 93061B   08161.22409023  .00000062  00000-0  42653-4 0  9997
2 22824 098.4249 115.8966 0005975 326.7783 033.3025 14.27280667765988
1 22824U 93061B   08161.92512413 +.00000016 +00000-0 +23565-4 0  9992
2 22824 098.4249 116.5723 0005983 324.6388 035.4397 14.27280507766084
1 22824U 93061B   08162.48595093 -.00000011  00000-0  12708-4 0  9992
2 22824 098.4251 117.1141 0005906 322.2404 037.8354 14.27280256766165
1 22824U 93061B   08162.83646801 +.00000017 +00000-0 +24185-4 0  9992
2 22824 098.4250 117.4520 0005892 321.0271 039.0491 14.27280416766211
1 22824U 93061B   08163.81791472  .00000014  00000-0  23038-4 0  9999
2 22824 098.4247 118.3975 0005730 317.0121 043.0596 14.27280456766351
1 22824U 93061B   08164.72925933 -.00000187 +00000-0 -59267-4 0  9997
2 22824 098.4246 119.2756 0005628 313.4977 046.5708 14.27279338766486
1 22824U 93061B   08165.07977708 -.00000144  00000-0 -41676-4 0  9991
2 22824 098.4245 119.6134 0005639 312.2643 047.8085 14.27279616766535
1 22824U 93061B   08165.78081068 -.00000035 +00000-0 +28013-5 0  9993
2 22824 098.4247 120.2895 0005645 310.2580 049.8126 14.27280097766638
1 22824U 93061B   08166.41174048  .00000074  00000-0  47365-4 0  9997
2 22824 098.4244 120.8979 0005600 308.1855 051.8835 14.27280801766729
1 22824U 93061B   08166.69215370 +.00000120 +00000-0 +66133-4 0  9997
2 22824 098.4244 121.1681 0005594 307.3599 052.7064 14.27280932766764
1 22824U 93061B   08167.74370430  .00000038  00000-0  32896-4 0  9990
2 22824 098.4246 122.1815 0005594 303.7506 056.3116 14.27280630766914
1 22824U 93061B   08168.72515258 -.00000228 +00000-0 -75948-4 0  9996
2 22824 098.4249 123.1280 0005566 300.4275 059.6325 14.27279294767058
1 22824U 93061B   08169.00556698 -.00000238  00000-0 -80172-4 0  9997
2 22824 098.4247 123.3979 0005580 299.4818 060.5813 14.27279219767093
1 22824U 93061B   08169.70660070 -.00000056 +00000-0 -55555-5 0  9990
2 22824 098.4250 124.0741 0005583 298.2475 061.8141 14.27279967767190
1 22824U 93061B   08170.40763462  .00000013  00000-0  22353-4 0  9998
2 22824 098.4252 124.7501 0005557 296.0300 064.0327 14.27280466767295
1 22824U 93061B   08170.68804783 +.00000093 +00000-0 +55213-4 0  9999
2 22824 098.4251 125.0197 0005511 295.8004 064.2589 14.27280682767334
1 22824U 93061B   08171.59939180  .00000004  00000-0  18728-4 0  9992
2 22824 098.4255 125.8985 0005517 292.6851 067.3705 14.27280282767466
1 22824U 93061B   08172.86125519 -.00000158 +00000-0 -47316-4 0  9993
2 22824 098.4252 127.1151 0005544 288.0653 071.9968 14.27279502767647
1 22824U 93061B   08173.21177158 -.00000149  00000-0 -43816-4 0  9990
2 22824 098.4253 127.4530 0005533 287.1208 072.9381 14.27279607767697
1 22824U 93061B   08173.84270193 +.00000072 +00000-0 +46424-4 0  9993
2 22824 098.4258 128.0621 0005480 285.7951 074.2642 14.27280622767784
1 22824U 93061B   08174.40352842  .00000134  00000-0  71817-4 0  9991
2 22824 098.4257 128.6029 0005475 283.8972 076.1605 14.27281142767864
1 22824U 93061B   08174.75404514 +.00000181 +00000-0 +91376-4 0  9997
2 22824 098.4259 128.9407 0005453 281.8893 078.1672 14.27281274767913
1 22824U 93061B   08175.73549260 -.00000100  00000-0 -23516-4 0  9998
2 22824 098.4259 129.8869 0005479 278.7008 081.3491 14.27279929768051
1 22824U 93061B   08176.85714908 -.00000327 +00000-0 -11648-3 0  9998
2 22824 098.4259 130.9677 0005473 275.4638 084.5900 14.27278714768217
1 22824U 93061B   08177.13756344 -.00000193  00000-0 -61656-4 0  9996
2 22824 098.4260 131.2385 0005472 273.6354 086.4254 14.27279413768257
1 22824U 93061B   08177.83859692 +.00000070 +00000-0 +45680-4 0  9994
2 22824 098.4260 131.9146 0005383 272.2131 087.8465 14.27280596768352
1 22824U 93061B   08178.46952638  .00000151  00000-0  79049-4 0  9994
2 22824 098.4256 132.5223 0005376 268.7424 091.3133 14.27281072768449
1 22824U 93061B   08178.82004344 +.00000201 +00000-0 +99503-4 0  9999
2 22824 098.4255 132.8603 0005384 267.8184 092.2383 14.27281394768494
1 22824U 93061B   08179.59118052 -.00000040  00000-0  87420-6 0  9995
2 22824 098.4256 133.6033 0005402 264.5375 095.5129 14.27280187768604
1 22824U 93061B   08179.94169886 -.00000088 +00000-0 -18703-4 0  9994
2 22824 098.4252 133.9414 0005418 263.0522 097.0053 14.27280093768655
1 22824U 93061B   08180.64273282 -.00000222  00000-0 -73422-4 0  9998
2 22824 098.4250 134.6175 0005399 260.8486 099.2049 14.27279350768751
1 22824U 93061B   08180.92314743 -.00000180 +00000-0 -56335-4 0  9994
2 22824 098.4250 134.8876 0005405 259.8970 100.1623 14.27279593768798
1 22824U 93061B   08181.83449101  .00000089  00000-0  53526-4 0  9997
2 22824 098.4253 135.7668 0005362 256.2834 103.7770 14.27280933768929
1 22824U 93061B   08182.88604169  .00000071  00000-0  46184-4 0  9993
2 22824 098.4254 136.7803 0005382 252.1576 107.9012 14.27280941769073
1 22824U 93061B   08183.86749060 -.00000168 +00000-0 -51431-4 0  9992
2 22824 098.4251 137.7262 0005410 249.0343 111.0264 14.27279780769219
1 22824U 93061B   08184.14790437 -.00000236  00000-0 -79497-4 0  9996
2 22824 098.4249 137.9967 0005443 248.0002 112.0605 14.27279490769259
1 22824U 93061B   08184.84893884 -.00000110 +00000-0 -27724-4 0  9990
2 22824 098.4250 138.6726 0005425 245.9228 114.1400 14.27279952769358
1 22824U 93061B   08185.40976611 -.00000078  00000-0 -14759-4 0  9990
2 22824 098.4254 139.2134 0005410 244.2080 115.8557 14.27280169769436
1 22824U 93061B   08185.76028308 +.00000016 +00000-0 +23726-4 0  9994
2 22824 098.4255 139.5513 0005404 243.0875 116.9755 14.27280457769480
1 22824U 93061B   08186.53142056  .00000012  00000-0  21947-4 0  9996
2 22824 098.4259 140.2947 0005410 239.7894 120.2738 14.27280458769596
1 22824U 93061B   08186.81183456 +.00000082 +00000-0 +50571-4 0  9998
2 22824 098.4259 140.5650 0005422 239.0678 120.9985 14.27280839769635
1 22824U 93061B   08187.79328306 -.00000129 +00000-0 -35737-4 0  9992
2 22824 098.4259 141.5110 0005474 235.9744 124.0909 14.27279732769779
1 22824U 93061B   08188.77473153 -.00000051 +00000-0 -37308-5 0  9993
2 22824 098.4267 142.4583 0005460 232.9895 127.0796 14.27280044769912
1 22824U 93061B   08189.05514519  .00000029  00000-0  28867-4 0  9999
2 22824 098.4267 142.7287 0005457 232.4223 127.6483 14.27280502769954
